[{"OBJECT_NAME":"STARLINK-2454","OBJECT_ID":"2021-027AA","EPOCH":"2026-03-09T13:45:47.366496","MEAN_MOTION":15.3018945,"ECCENTRICITY":0.0001501,"INCLINATION":53.1618,"RA_OF_ASC_NODE":165.8028,"ARG_OF_PERICENTER":80.817,"MEAN_ANOMALY":279.3,"EPHEMERIS_TYPE":0,"CLASSIFICATION_TYPE":"U","NORAD_CAT_ID":48116,"ELEMENT_SET_NO":999,"REV_AT_EPOCH":27249,"BSTAR":5.7234e-7,"MEAN_MOTION_DOT":-3.42e-6,"MEAN_MOTION_DDOT":0},{"OBJECT_NAME":"DMSP 5D-2 F13 DEB","OBJECT_ID":"1995-015HL","EPOCH":"2026-02-09T02:06:19.247328","MEAN_MOTION":15.12822218,"ECCENTRICITY":0.00117732,"INCLINATION":98.8603,"RA_OF_ASC_NODE":96.8879,"ARG_OF_PERICENTER":223.037,"MEAN_ANOMALY":136.9936,"EPHEMERIS_TYPE":0,"CLASSIFICATION_TYPE":"U","NORAD_CAT_ID":42294,"ELEMENT_SET_NO":999,"REV_AT_EPOCH":55633,"BSTAR":0.010466292,"MEAN_MOTION_DOT":0.00188804,"MEAN_MOTION_DDOT":0}]
